ONEWEB-0533             
1 55141U 23004B   25244.21364502  .00000394  00000+0  10589-2 0  9995
2 55141  87.8881  48.0834 0001875  87.6586 272.4758 13.12442571130151
ONEWEB-0541             
1 55142U 23004C   25244.24642996 -.00000039  00000+0 -14461-3 0  9997
2 55142  87.8778  78.6200 0001610  91.6351 268.4961 13.11415206128078
ONEWEB-0543             
1 55143U 23004D   25244.15022381  .00000106  00000+0  23644-3 0  9994
2 55143  87.9152  32.9100 0001691  85.7213 274.4112 13.18686161131603
ONEWEB-0544             
1 55144U 23004E   25243.84011402  .00000070  00000+0  14431-3 0  9996
2 55144  87.9151  32.9619 0001519  92.3274 267.8032 13.18686890131569
ONEWEB-0560             
1 55145U 23004F   25244.13702905  .00000110  00000+0  24706-3 0  9996
2 55145  87.9159  32.8804 0001455  93.0758 267.0541 13.18686819131611
ONEWEB-0565             
1 55146U 23004G   25244.13042128  .00000094  00000+0  20602-3 0  9993
2 55146  87.9152  32.9366 0001529 113.2511 246.8782 13.18684870131609
ONEWEB-0567             
1 55147U 23004H   25244.12382493  .00000138  00000+0  31770-3 0  9992
2 55147  87.9158  32.8972 0001399 104.2587 255.8700 13.18685367131608
ONEWEB-0569             
1 55148U 23004J   25244.29504742  .00000281  00000+0  73592-3 0  9991
2 55148  87.9018  17.5907 0000737 106.3043 253.8167 13.13469469132252
ONEWEB-0570             
1 55149U 23004K   25244.18981370  .00000074  00000+0  15428-3 0  9990
2 55149  87.9155  32.8853 0002018 111.5419 248.5928 13.18686743131609
ONEWEB-0571             
1 55150U 23004L   25244.18321759  .00000027  00000+0  36825-4 0  9994
2 55150  87.9151  32.8919 0001092 142.1932 217.9277 13.18686360131614
ONEWEB-0572             
1 55151U 23004M   25244.20252946  .00000149  00000+0  35157-3 0  9990
2 55151  87.9037  63.3581 0001676  96.4791 263.6532 13.17651610129421
ONEWEB-0573             
1 55152U 23004N   25244.17660109  .00000057  00000+0  11221-3 0  9995
2 55152  87.9151  32.9000 0001631 126.6616 233.4666 13.18686837131606
ONEWEB-0588             
1 55153U 23004P   25244.16999923  .00000050  00000+0  94776-4 0  9994
2 55153  87.9157  32.8871 0001841 110.3893 249.7437 13.18688166131601
ONEWEB-0598             
1 55154U 23004Q   25244.07180141  .00000590  00000+0  16287-2 0  9997
2 55154  87.8770  78.6894 0001077  91.7074 268.4177 13.11416279128005
ONEWEB-0599             
1 55155U 23004R   25244.23964162  .00000021  00000+0  21784-4 0  9998
2 55155  87.9035  63.3546 0001583  86.5565 273.5747 13.17647690129432
ONEWEB-0614             
1 55156U 23004S   25244.06671750  .00000466  00000+0  12797-2 0  9993
2 55156  87.8773  78.7005 0001969  92.7809 267.3544 13.11417534127945
ONEWEB-0616             
1 55157U 23004T   25244.05403134  .00000042  00000+0  75522-4 0  9999
2 55157  87.9035  63.3825 0001738  55.3175 304.8120 13.17650061129627
