[{"OBJECT_NAME":"ONEWEB-0533","OBJECT_ID":"2023-004B","EPOCH":"2025-09-01T05:07:38.929728","MEAN_MOTION":13.12442571,"ECCENTRICITY":0.00018751,"INCLINATION":87.8881,"RA_OF_ASC_NODE":48.0834,"ARG_OF_PERICENTER":87.6586,"MEAN_ANOMALY":272.4758,"EPHEMERIS_TYPE":0,"CLASSIFICATION_TYPE":"U","NORAD_CAT_ID":55141,"ELEMENT_SET_NO":999,"REV_AT_EPOCH":13015,"BSTAR":0.0010588548,"MEAN_MOTION_DOT":3.94e-6,"MEAN_MOTION_DDOT":0},{"OBJECT_NAME":"ONEWEB-0541","OBJECT_ID":"2023-004C","EPOCH":"2025-09-01T05:54:51.548544","MEAN_MOTION":13.11415206,"ECCENTRICITY":0.00016107,"INCLINATION":87.8778,"RA_OF_ASC_NODE":78.62,"ARG_OF_PERICENTER":91.6351,"MEAN_ANOMALY":268.4961,"EPHEMERIS_TYPE":0,"CLASSIFICATION_TYPE":"U","NORAD_CAT_ID":55142,"ELEMENT_SET_NO":999,"REV_AT_EPOCH":12807,"BSTAR":-0.00014461081,"MEAN_MOTION_DOT":-3.9e-7,"MEAN_MOTION_DDOT":0},{"OBJECT_NAME":"ONEWEB-0543","OBJECT_ID":"2023-004D","EPOCH":"2025-09-01T03:36:19.337184","MEAN_MOTION":13.18686161,"ECCENTRICITY":0.00016919,"INCLINATION":87.9152,"RA_OF_ASC_NODE":32.91,"ARG_OF_PERICENTER":85.7213,"MEAN_ANOMALY":274.4112,"EPHEMERIS_TYPE":0,"CLASSIFICATION_TYPE":"U","NORAD_CAT_ID":55143,"ELEMENT_SET_NO":999,"REV_AT_EPOCH":13160,"BSTAR":0.00023644009,"MEAN_MOTION_DOT":1.06e-6,"MEAN_MOTION_DDOT":0},{"OBJECT_NAME":"ONEWEB-0544","OBJECT_ID":"2023-004E","EPOCH":"2025-08-31T20:09:45.851328","MEAN_MOTION":13.1868689,"ECCENTRICITY":0.00015196,"INCLINATION":87.9151,"RA_OF_ASC_NODE":32.9619,"ARG_OF_PERICENTER":92.3274,"MEAN_ANOMALY":267.8032,"EPHEMERIS_TYPE":0,"CLASSIFICATION_TYPE":"U","NORAD_CAT_ID":55144,"ELEMENT_SET_NO":999,"REV_AT_EPOCH":13156,"BSTAR":0.00014431428,"MEAN_MOTION_DOT":7.0e-7,"MEAN_MOTION_DDOT":0},{"OBJECT_NAME":"ONEWEB-0560","OBJECT_ID":"2023-004F","EPOCH":"2025-09-01T03:17:19.309920","MEAN_MOTION":13.18686819,"ECCENTRICITY":0.00014552,"INCLINATION":87.9159,"RA_OF_ASC_NODE":32.8804,"ARG_OF_PERICENTER":93.0758,"MEAN_ANOMALY":267.0541,"EPHEMERIS_TYPE":0,"CLASSIFICATION_TYPE":"U","NORAD_CAT_ID":55145,"ELEMENT_SET_NO":999,"REV_AT_EPOCH":13161,"BSTAR":0.00024705624,"MEAN_MOTION_DOT":1.1e-6,"MEAN_MOTION_DDOT":0},{"OBJECT_NAME":"ONEWEB-0565","OBJECT_ID":"2023-004G","EPOCH":"2025-09-01T03:07:48.398592","MEAN_MOTION":13.1868487,"ECCENTRICITY":0.00015299,"INCLINATION":87.9152,"RA_OF_ASC_NODE":32.9366,"ARG_OF_PERICENTER":113.2511,"MEAN_ANOMALY":246.8782,"EPHEMERIS_TYPE":0,"CLASSIFICATION_TYPE":"U","NORAD_CAT_ID":55146,"ELEMENT_SET_NO":999,"REV_AT_EPOCH":13160,"BSTAR":0.0002060152,"MEAN_MOTION_DOT":9.4e-7,"MEAN_MOTION_DDOT":0},{"OBJECT_NAME":"ONEWEB-0567","OBJECT_ID":"2023-004H","EPOCH":"2025-09-01T02:58:18.473952","MEAN_MOTION":13.18685367,"ECCENTRICITY":0.00013991,"INCLINATION":87.9158,"RA_OF_ASC_NODE":32.8972,"ARG_OF_PERICENTER":104.2587,"MEAN_ANOMALY":255.87,"EPHEMERIS_TYPE":0,"CLASSIFICATION_TYPE":"U","NORAD_CAT_ID":55147,"ELEMENT_SET_NO":999,"REV_AT_EPOCH":13160,"BSTAR":0.0003177005,"MEAN_MOTION_DOT":1.38e-6,"MEAN_MOTION_DDOT":0},{"OBJECT_NAME":"ONEWEB-0569","OBJECT_ID":"2023-004J","EPOCH":"2025-09-01T07:04:52.097088","MEAN_MOTION":13.13469469,"ECCENTRICITY":7.377e-5,"INCLINATION":87.9018,"RA_OF_ASC_NODE":17.5907,"ARG_OF_PERICENTER":106.3043,"MEAN_ANOMALY":253.8167,"EPHEMERIS_TYPE":0,"CLASSIFICATION_TYPE":"U","NORAD_CAT_ID":55148,"ELEMENT_SET_NO":999,"REV_AT_EPOCH":13225,"BSTAR":0.00073591715,"MEAN_MOTION_DOT":2.81e-6,"MEAN_MOTION_DDOT":0},{"OBJECT_NAME":"ONEWEB-0570","OBJECT_ID":"2023-004K","EPOCH":"2025-09-01T04:33:19.903680","MEAN_MOTION":13.18686743,"ECCENTRICITY":0.00020186,"INCLINATION":87.9155,"RA_OF_ASC_NODE":32.8853,"ARG_OF_PERICENTER":111.5419,"MEAN_ANOMALY":248.5928,"EPHEMERIS_TYPE":0,"CLASSIFICATION_TYPE":"U","NORAD_CAT_ID":55149,"ELEMENT_SET_NO":999,"REV_AT_EPOCH":13160,"BSTAR":0.00015428276,"MEAN_MOTION_DOT":7.4e-7,"MEAN_MOTION_DDOT":0},{"OBJECT_NAME":"ONEWEB-0571","OBJECT_ID":"2023-004L","EPOCH":"2025-09-01T04:23:49.999776","MEAN_MOTION":13.1868636,"ECCENTRICITY":0.00010922,"INCLINATION":87.9151,"RA_OF_ASC_NODE":32.8919,"ARG_OF_PERICENTER":142.1932,"MEAN_ANOMALY":217.9277,"EPHEMERIS_TYPE":0,"CLASSIFICATION_TYPE":"U","NORAD_CAT_ID":55150,"ELEMENT_SET_NO":999,"REV_AT_EPOCH":13161,"BSTAR":3.6825458e-5,"MEAN_MOTION_DOT":2.7e-7,"MEAN_MOTION_DDOT":0},{"OBJECT_NAME":"ONEWEB-0572","OBJECT_ID":"2023-004M","EPOCH":"2025-09-01T04:51:38.545344","MEAN_MOTION":13.1765161,"ECCENTRICITY":0.00016768,"INCLINATION":87.9037,"RA_OF_ASC_NODE":63.3581,"ARG_OF_PERICENTER":96.4791,"MEAN_ANOMALY":263.6532,"EPHEMERIS_TYPE":0,"CLASSIFICATION_TYPE":"U","NORAD_CAT_ID":55151,"ELEMENT_SET_NO":999,"REV_AT_EPOCH":12942,"BSTAR":0.0003515713,"MEAN_MOTION_DOT":1.49e-6,"MEAN_MOTION_DDOT":0},{"OBJECT_NAME":"ONEWEB-0573","OBJECT_ID":"2023-004N","EPOCH":"2025-09-01T04:14:18.334176","MEAN_MOTION":13.18686837,"ECCENTRICITY":0.00016315,"INCLINATION":87.9151,"RA_OF_ASC_NODE":32.9,"ARG_OF_PERICENTER":126.6616,"MEAN_ANOMALY":233.4666,"EPHEMERIS_TYPE":0,"CLASSIFICATION_TYPE":"U","NORAD_CAT_ID":55152,"ELEMENT_SET_NO":999,"REV_AT_EPOCH":13160,"BSTAR":0.0001122092,"MEAN_MOTION_DOT":5.7e-7,"MEAN_MOTION_DDOT":0},{"OBJECT_NAME":"ONEWEB-0588","OBJECT_ID":"2023-004P","EPOCH":"2025-09-01T04:04:47.933472","MEAN_MOTION":13.18688166,"ECCENTRICITY":0.00018415,"INCLINATION":87.9157,"RA_OF_ASC_NODE":32.8871,"ARG_OF_PERICENTER":110.3893,"MEAN_ANOMALY":249.7437,"EPHEMERIS_TYPE":0,"CLASSIFICATION_TYPE":"U","NORAD_CAT_ID":55153,"ELEMENT_SET_NO":999,"REV_AT_EPOCH":13160,"BSTAR":9.4776303e-5,"MEAN_MOTION_DOT":5.0e-7,"MEAN_MOTION_DDOT":0},{"OBJECT_NAME":"ONEWEB-0598","OBJECT_ID":"2023-004Q","EPOCH":"2025-09-01T01:43:23.641824","MEAN_MOTION":13.11416279,"ECCENTRICITY":0.00010779,"INCLINATION":87.877,"RA_OF_ASC_NODE":78.6894,"ARG_OF_PERICENTER":91.7074,"MEAN_ANOMALY":268.4177,"EPHEMERIS_TYPE":0,"CLASSIFICATION_TYPE":"U","NORAD_CAT_ID":55154,"ELEMENT_SET_NO":999,"REV_AT_EPOCH":12800,"BSTAR":0.0016287382,"MEAN_MOTION_DOT":5.9e-6,"MEAN_MOTION_DDOT":0},{"OBJECT_NAME":"ONEWEB-0599","OBJECT_ID":"2023-004R","EPOCH":"2025-09-01T05:45:05.035968","MEAN_MOTION":13.1764769,"ECCENTRICITY":0.0001583,"INCLINATION":87.9035,"RA_OF_ASC_NODE":63.3546,"ARG_OF_PERICENTER":86.5565,"MEAN_ANOMALY":273.5747,"EPHEMERIS_TYPE":0,"CLASSIFICATION_TYPE":"U","NORAD_CAT_ID":55155,"ELEMENT_SET_NO":999,"REV_AT_EPOCH":12943,"BSTAR":2.1784243e-5,"MEAN_MOTION_DOT":2.1e-7,"MEAN_MOTION_DDOT":0},{"OBJECT_NAME":"ONEWEB-0614","OBJECT_ID":"2023-004S","EPOCH":"2025-09-01T01:36:04.392000","MEAN_MOTION":13.11417534,"ECCENTRICITY":0.0001969,"INCLINATION":87.8773,"RA_OF_ASC_NODE":78.7005,"ARG_OF_PERICENTER":92.7809,"MEAN_ANOMALY":267.3544,"EPHEMERIS_TYPE":0,"CLASSIFICATION_TYPE":"U","NORAD_CAT_ID":55156,"ELEMENT_SET_NO":999,"REV_AT_EPOCH":12794,"BSTAR":0.0012797076,"MEAN_MOTION_DOT":4.66e-6,"MEAN_MOTION_DDOT":0},{"OBJECT_NAME":"ONEWEB-0616","OBJECT_ID":"2023-004T","EPOCH":"2025-09-01T01:17:48.307776","MEAN_MOTION":13.17650061,"ECCENTRICITY":0.00017385,"INCLINATION":87.9035,"RA_OF_ASC_NODE":63.3825,"ARG_OF_PERICENTER":55.3175,"MEAN_ANOMALY":304.812,"EPHEMERIS_TYPE":0,"CLASSIFICATION_TYPE":"U","NORAD_CAT_ID":55157,"ELEMENT_SET_NO":999,"REV_AT_EPOCH":12962,"BSTAR":7.5522413e-5,"MEAN_MOTION_DOT":4.2e-7,"MEAN_MOTION_DDOT":0}]
